#aV2006  5  7  0  0   .00000000      96 DD+AD WGS84 FIT  NGA
## 1374       .00000000   900.00000000 53862  .0000000000000
+   29     1  2  3  4  5  6  7  8  9 10 11 13 14 15 16 17 18
+         19 20 21 22 23 24 25 26 27 28 29 30  0  0  0  0  0
+          0  0  0  0  0  0  0  0  0  0  0  0  0  0  0  0  0
+          0  0  0  0  0  0  0  0  0  0  0  0  0  0  0  0  0
+          0  0  0  0  0  0  0  0  0  0  0  0  0  0  0  0  0
++         0  0  0  0  0  0  0  0  0  0  0  0  0  0  0  0  0
++         0  0  0  0  0  0  0  0  0  0  0  0  0  0  0  0  0
++         0  0  0  0  0  0  0  0  0  0  0  0  0  0  0  0  0
++         0  0  0  0  0  0  0  0  0  0  0  0  0  0  0  0  0
++         0  0  0  0  0  0  0  0  0  0  0  0  0  0  0  0  0
%c cc cc ccc ccc cccc cccc cccc cccc ccccc ccccc ccccc ccccc
%c cc cc ccc ccc cccc cccc cccc cccc ccccc ccccc ccccc ccccc
%f  0.0000000  0.000000000  0.00000000000  0.000000000000000
%f  0.0000000  0.000000000  0.00000000000  0.000000000000000
%i    0    0    0    0      0      0      0      0         0
%i    0    0    0    0      0      0      0      0         0
/*      NGA, ST. LOUIS,MO.                                  
/*   EPHEMERIS COMPUTED FROM  3 DAYS OF DATA                
/* CCCCCCCCCCCCCCCCCCCCCCCCCCCCCCCCCCCCCCCCCCCCCCCCCCCCCCCCC
/* CCCCCCCCCCCCCCCCCCCCCCCCCCCCCCCCCCCCCCCCCCCCCCCCCCCCCCCCC
*  2006  5  7 14  0   .00000000                                                 
P  1 -15416.254577  21348.721859   3470.214290     51.421389                    
V  1  -4195.316761   1870.379107 -31974.903395       .023086                    
P  2  10025.244496 -13251.061867  20413.724905     -4.410758                    
V  2  26154.116433   4992.787794  -9679.240752       .025298                    
P  3  -9563.213415  23714.441123  -6733.033977     96.636423                    
V  3  -7931.748431   4905.898142  29559.116898       .029553                    
P  4  20756.285611  -7400.907372  15035.278108    224.163262                    
V  4  18440.043616   5192.285836 -22497.914378       .094685                    
P  5 -13477.810474 -22794.090706   2819.234386    -41.308767                    
V  5   1372.456457  -4915.121261 -30850.508342       .569938                    
P  6 -15483.489790  -5351.688063  21111.580632    512.648718                    
V  6  15315.798343 -21576.213167   5740.401601       .187402                    
P  7 -19669.497323  15173.362604   9927.710705    535.136849                    
V  7   4526.695562 -11649.793728  27586.019173       .029460                    
P  8  25427.802326   -959.870690  -8445.297545    -64.977281                    
V  8   9850.196667   3839.853038  29333.812469      -.011398                    
P  9 -12476.280432 -14713.562506 -18923.396037     19.219597                    
V  9  22796.428038   1371.005850 -16297.374770       .015465                    
P 10    727.611872 -23088.429972  12725.857833     83.047444                    
V 10   7733.587101  14643.535830  26231.188595       .006000                    
P 11  14712.333667  13906.897164 -17374.250948    325.514372                    
V 11 -22098.112253   2391.103369 -16613.080370       .024678                    
P 13  14855.257227   4172.222169  21521.985448     60.016493                    
V 13 -17281.596665  21343.521424   7816.632565       .028115                    
P 14 -20170.156496  13374.934961 -10819.241591    -14.499896                    
V 14   7342.858310 -11844.480869 -28206.431200       .007420                    
P 15 -25445.320680    305.624635  -8457.602243    608.786029                    
V 15  -9625.678120  -4610.374822  28958.446982       .060641                    
P 16  -5216.353650  19695.046063  17072.108310     41.325141                    
V 16  -9349.502501 -19492.434470  19835.151742       .023552                    
P 17  20346.081624 -12232.947043 -11823.990922     90.257153                    
V 17  -7469.766416  13272.347525 -26700.318164       .034153                    
P 18 -16782.253405 -10647.535179 -17666.853167   -234.210798                    
V 18  -5839.030609 -21806.064801  18287.911616      -.016913                    
P 19  -2088.098777  20175.120578 -17016.554521    -11.956086                    
V 19 -15991.225258  14989.077576  19653.203706       .017700                    
P 20  13154.074044  22426.579615   5423.869401    -27.305085                    
V 20      1.211025   7550.320249 -30654.848033       .006258                    
P 21 -26287.947135  -5448.819175    629.741630     26.949755                    
V 21   1252.466772  -2712.774201  31014.214613       .027200                    
P 22 -14501.853688   4751.910558 -21587.299985     93.236693                    
V 22  -8789.567653 -26364.233982     93.105289       .041693                    
P 23   6439.767009  14949.549314  20860.615612    142.106412                    
V 23 -17288.357746  20387.702481  -9387.827374      -.009146                    
P 24  26105.510449   1238.062075   5701.472768      4.181205                    
V 24   6255.741711   3809.669066 -30481.090712       .028823                    
P 25 -16384.885335  11707.895276  17786.884101      7.964490                    
V 25 -21641.832323  -2820.602557 -18369.177926      -.088343                    
P 26   4257.220952 -21020.449884 -15644.182821   -108.057016                    
V 26  13679.820948 -13783.562787  23382.965044      -.112182                    
P 27  26291.847810   4334.861999   2836.681232     47.640303                    
V 27  -3056.233209   2297.792607  31219.192127       .017423                    
P 28  15683.769675   -382.107745 -21188.286184     27.918272                    
V 28   9189.602104  25958.043906   5911.568023      -.008176                    
P 29   7578.765925 -22295.420228 -11769.406300    600.337015                    
V 29  11012.166555 -10906.430916  27476.148509       .069079                    
P 30 -16958.155088 -15796.796034  12802.951542    223.806035                    
V 30  -4186.893814 -16384.402906 -25097.781227       .312826                    
EOF
